[
    {
        "CCSDS_OMM_VERS": "3.0",
        "COMMENT": "GENERATED VIA SPACE-TRACK.ORG API",
        "CREATION_DATE": "2025-04-12T22:09:39",
        "ORIGINATOR": "18 SPCS",
        "OBJECT_NAME": "GALILEO 15 (267)",
        "OBJECT_ID": "2016-069A",
        "CENTER_NAME": "EARTH",
        "REF_FRAME": "TEME",
        "TIME_SYSTEM": "UTC",
        "MEAN_ELEMENT_THEORY": "SGP4",
        "EPOCH": "2025-04-12T04:37:54.454368",
        "MEAN_MOTION": "1.70474442",
        "ECCENTRICITY": "0.00058350",
        "INCLINATION": "55.2403",
        "RA_OF_ASC_NODE": "113.0234",
        "ARG_OF_PERICENTER": "303.9617",
        "MEAN_ANOMALY": "56.0260",
        "EPHEMERIS_TYPE": "0",
        "CLASSIFICATION_TYPE": "U",
        "NORAD_CAT_ID": "41859",
        "ELEMENT_SET_NO": "999",
        "REV_AT_EPOCH": "5205",
        "BSTAR": "0.00000000000000",
        "MEAN_MOTION_DOT": "0.00000054",
        "MEAN_MOTION_DDOT": "0.0000000000000",
        "SEMIMAJOR_AXIS": "29600.269",
        "PERIOD": "844.701",
        "APOAPSIS": "23239.406",
        "PERIAPSIS": "23204.862",
        "OBJECT_TYPE": "PAYLOAD",
        "RCS_SIZE": "LARGE",
        "COUNTRY_CODE": "ESA",
        "LAUNCH_DATE": "2016-11-17",
        "SITE": "FRGUI",
        "DECAY_DATE": null,
        "FILE": "4699941",
        "GP_ID": "285445781",
        "TLE_LINE0": "0 GALILEO 15 (267)",
        "TLE_LINE1": "1 41859U 16069A   25102.19299137  .00000054  00000-0  00000-0 0  9999",
        "TLE_LINE2": "2 41859  55.2403 113.0234 0005835 303.9617  56.0260  1.70474442 52056"
    }
]